{"type":"FeatureCollection","features":[{"type":"Feature","geometry":{"type":"Polygon","coordinates":[[[101.25000002292322,16.640000035273786],[106.8800000003533,16.639999970799586],[106.8800000003533,21.939999977763986],[101.25000002292322,21.94000000998964],[101.25000002292322,16.640000035273786]]]},"id":"00000000000000000394","properties":{"fid":917,"percentage_known_occupancy":17.950000762939453,"completeness_index":93.19000244140625,"percentage_known_height":74.75,"percentage_source_openstreetmap":0.7099999785423279,"URL":"https://datapub.gfz.de/download/10.5880.GFZ.LKUT.2025.002-Caweb/2025-002_Oostwegel-et-al_data/building.132210.gpkg.bz2","percentage_source_google":95.41999816894531,"license":"ODbL","filename":"building.132210.gpkg","quadkey":132210,"percentage_known_floorspace":0.019999999552965164,"id":"I2NzQ","number_of_buildings":38475208,"percentage_source_microsoft":3.869999885559082}}]}